NORAD_CAT_ID,OBJECT_NAME,OBJECT_TYPE,EPOCH,MEAN_MOTION,ECCENTRICITY,INCLINATION,RA_OF_ASC_NODE,ARG_OF_PERICENTER,MEAN_ANOMALY,BSTAR,MEAN_MOTION_DOT,MEAN_MOTION_DDOT,TLE_LINE0,TLE_LINE1,TLE_LINE2,SEMIMAJOR_AXIS,PERIOD,APOGEE,PERIGEE,DECAYED
50842.0,STARLINK-3302,PAYLOAD,2024-07-02 08:55:43,15.08839922,0.0001126,53.2169,61.3888,70.0674,290.0439,0.00020119,2.916e-05,0.0,0 STARLINK-3302,1 50842U 22001AR  24184.37202582  .00002916  00000-0  20119-3 0  9996,2 50842  53.2169  61.3888 0001126  70.0674 290.0439 15.08839922137369,6917.881,95.438,540.525,538.967,0.0
50842.0,STARLINK-3302,PAYLOAD,2024-07-02 21:38:48,15.08842036,0.0001315,53.2178,59.0126,80.8392,279.2749,-0.00012884,-2.338e-05,0.0,0 STARLINK-3302,1 50842U 22001AR  24184.90195420 -.00002338  00000-0 -12884-3 0  9997,2 50842  53.2178  59.0126 0001315  80.8392 279.2749 15.08842036138739,6917.874,95.437,540.649,538.829,0.0
50842.0,STARLINK-3302,PAYLOAD,2024-07-03 08:46:30,15.0884745,0.000111,53.217,56.93,81.4752,278.6366,-7.3499e-05,-1.458e-05,0.0,0 STARLINK-3302,1 50842U 22001AR  24185.36562619 -.00001458  00000-0 -73499-4 0  9998,2 50842  53.2170  56.9300 0001110  81.4752 278.6366 15.08847450138802,6917.858,95.437,540.49,538.955,0.0
50842.0,STARLINK-3302,PAYLOAD,2024-07-03 19:54:12,15.08837725,0.0001095,53.217,54.8469,87.7632,272.3485,1.1127e-05,-1.11e-06,0.0,0 STARLINK-3302,1 50842U 22001AR  24185.82930988 -.00000111  00000-0  11127-4 0  9991,2 50842  53.2170  54.8469 0001095  87.7632 272.3485 15.08837725138877,6917.887,95.438,540.51,538.995,0.0
50842.0,STARLINK-3302,PAYLOAD,2024-07-03 21:29:35,15.08843959,9.22e-05,53.2162,54.5499,83.373,276.7367,-1.8278e-05,-5.79e-06,0.0,0 STARLINK-3302,1 50842U 22001AR  24185.89554637 -.00000579  00000-0 -18278-4 0  9994,2 50842  53.2162  54.5499 0000922  83.3730 276.7367 15.08843959137598,6917.868,95.437,540.371,539.095,0.0
50842.0,STARLINK-3302,PAYLOAD,2024-07-04 00:40:21,15.08850285,0.0001145,53.2171,53.9525,88.553,271.5593,1.4256e-05,-6.1e-07,0.0,0 STARLINK-3302,1 50842U 22001AR  24186.02802104 -.00000061  00000-0  14256-4 0  9992,2 50842  53.2171  53.9525 0001145  88.5530 271.5593 15.08850285138904,6917.849,95.437,540.506,538.922,0.0
50842.0,STARLINK-3302,PAYLOAD,2024-07-04 08:37:17,15.08843051,0.0001137,53.217,52.4659,89.5856,270.5266,-1.2549e-05,-4.88e-06,0.0,0 STARLINK-3302,1 50842U 22001AR  24186.35922481 -.00000488  00000-0 -12549-4 0  9996,2 50842  53.2170  52.4659 0001137  89.5856 270.5266 15.08843051138952,6917.871,95.437,540.523,538.95,0.0
50842.0,STARLINK-3302,PAYLOAD,2024-07-04 14:58:49,15.08833262,0.0001168,53.2164,51.2789,88.0481,272.0645,6.9052e-05,8.11e-06,0.0,0 STARLINK-3302,1 50842U 22001AR  24186.62418861  .00000811  00000-0  69052-4 0  9997,2 50842  53.2164  51.2789 0001168  88.0481 272.0645 15.08833262137701,6917.901,95.438,540.574,538.958,0.0
50842.0,STARLINK-3302,PAYLOAD,2024-07-04 21:20:21,15.08843271,0.0001084,53.2166,50.0888,98.0724,262.0391,7.2315e-05,8.63e-06,0.0,0 STARLINK-3302,1 50842U 22001AR  24186.88914243  .00000863  00000-0  72315-4 0  9993,2 50842  53.2166  50.0888 0001084  98.0724 262.0391 15.08843271137740,6917.87,95.437,540.485,538.985,0.0
50842.0,STARLINK-3302,PAYLOAD,2024-07-05 08:28:04,15.08839491,0.0001011,53.2162,48.0075,93.847,266.2638,4.3617e-05,4.06e-06,0.0,0 STARLINK-3302,1 50842U 22001AR  24187.35282513  .00000406  00000-0  43617-4 0  9990,2 50842  53.2162  48.0075 0001011  93.8470 266.2638 15.08839491137819,6917.882,95.438,540.446,539.048,0.0
50842.0,STARLINK-3302,PAYLOAD,2024-07-05 21:11:09,15.08840189,0.0001247,53.2177,45.6265,94.3992,265.7143,4.9945e-05,5.07e-06,0.0,0 STARLINK-3302,1 50842U 22001AR  24187.88274521  .00000507  00000-0  49945-4 0  9990,2 50842  53.2177  45.6265 0001247  94.3992 265.7143 15.08840189139188,6917.88,95.438,540.607,538.882,0.0
50842.0,STARLINK-3302,PAYLOAD,2024-07-06 14:40:24,15.08829794,0.0001207,53.2179,42.3527,111.9663,248.1457,6.661e-06,-1.82e-06,0.0,0 STARLINK-3302,1 50842U 22001AR  24188.61139252 -.00000182  00000-0  66610-5 0  9992,2 50842  53.2179  42.3527 0001207 111.9663 248.1457 15.08829794138004,6917.912,95.438,540.612,538.942,0.0
50842.0,STARLINK-3302,PAYLOAD,2024-07-06 21:01:56,15.08834375,0.000117,53.2179,41.1695,90.6249,269.4878,6.8543e-06,-1.79e-06,0.0,0 STARLINK-3302,1 50842U 22001AR  24188.87635146 -.00000179  00000-0  68543-5 0  9996,2 50842  53.2179  41.1695 0001170  90.6249 269.4878 15.08834375139330,6917.898,95.438,540.572,538.953,0.0
50842.0,STARLINK-3302,PAYLOAD,2024-07-07 00:12:42,15.08839639,0.0001108,53.2175,40.5722,91.1534,268.9585,-4.1292e-05,-9.45e-06,0.0,0 STARLINK-3302,1 50842U 22001AR  24189.00882955 -.00000945  00000-0 -41292-4 0  9997,2 50842  53.2175  40.5722 0001108  91.1534 268.9585 15.08839639138060,6917.881,95.438,540.513,538.98,0.0
50842.0,STARLINK-3302,PAYLOAD,2024-07-07 20:52:43,15.08843827,0.0001182,53.2178,36.7072,85.0016,275.1111,3.8502e-05,3.25e-06,0.0,0 STARLINK-3302,1 50842U 22001AR  24189.86994627  .00000325  00000-0  38502-4 0  9991,2 50842  53.2178  36.7072 0001182  85.0016 275.1111 15.08843827139483,6917.869,95.437,540.551,538.916,0.0
50842.0,STARLINK-3302,PAYLOAD,2024-07-08 06:25:02,15.08844738,0.0001207,53.2181,34.9234,84.7572,275.3558,3.2074e-05,2.23e-06,0.0,0 STARLINK-3302,1 50842U 22001AR  24190.26738492  .00000223  00000-0  32074-4 0  9998,2 50842  53.2181  34.9234 0001207  84.7572 275.3558 15.08844738138251,6917.866,95.437,540.566,538.896,0.0
50842.0,STARLINK-3302,PAYLOAD,2024-07-08 20:43:31,15.08833956,0.0001307,53.2188,32.252,101.0678,259.0461,5.1244e-05,5.28e-06,0.0,0 STARLINK-3302,1 50842U 22001AR  24190.86355372  .00000528  00000-0  51244-4 0  9994,2 50842  53.2188  32.2520 0001307 101.0678 259.0461 15.08833956139633,6917.899,95.438,540.668,538.86,0.0
50842.0,STARLINK-3302,PAYLOAD,2024-07-09 06:15:49,15.08835348,9.65e-05,53.2162,30.4615,69.1377,290.9718,2.0932e-05,4.5e-07,0.0,0 STARLINK-3302,1 50842U 22001AR  24191.26099360  .00000045  00000-0  20932-4 0  9995,2 50842  53.2162  30.4615 0000965  69.1377 290.9718 15.08835348138409,6917.895,95.438,540.427,539.092,0.0
50842.0,STARLINK-3302,PAYLOAD,2024-07-09 20:34:18,15.08839559,0.0001409,53.2185,27.7862,75.7192,284.3957,-1.3706e-05,-5.06e-06,0.0,0 STARLINK-3302,1 50842U 22001AR  24191.85715563 -.00000506  00000-0 -13706-4 0  9995,2 50842  53.2185  27.7862 0001409  75.7192 284.3957 15.08839559138498,6917.882,95.438,540.721,538.772,0.0
50842.0,STARLINK-3302,PAYLOAD,2024-07-10 06:06:36,15.088409,0.000133,53.2184,26.0026,87.4433,272.6711,-1.8459e-05,-5.82e-06,0.0,0 STARLINK-3302,1 50842U 22001AR  24192.25459475 -.00000582  00000-0 -18459-4 0  9991,2 50842  53.2184  26.0026 0001330  87.4433 272.6711 15.08840900139842,6917.878,95.437,540.663,538.823,0.0
50842.0,STARLINK-3302,PAYLOAD,2024-07-10 20:25:04,15.08843587,0.0001163,53.2173,23.3272,81.448,278.6644,5.658e-05,6.13e-06,0.0,0 STARLINK-3302,1 50842U 22001AR  24192.85075075  .00000613  00000-0  56580-4 0  9997,2 50842  53.2173  23.3272 0001163  81.4480 278.6644 15.08843587138645,6917.869,95.437,540.539,538.93,0.0
50842.0,STARLINK-3302,PAYLOAD,2024-07-11 12:18:56,15.0883653,0.0001185,53.217,20.3543,87.1318,272.981,9.6897e-05,1.254e-05,0.0,0 STARLINK-3302,1 50842U 22001AR  24193.51315397  .00001254  00000-0  96897-4 0  9992,2 50842  53.2170  20.3543 0001185  87.1318 272.9810 15.08836530138740,6917.891,95.438,540.576,538.936,0.0
50842.0,STARLINK-3302,PAYLOAD,2024-07-11 18:40:29,15.0883823,0.0001212,53.2172,19.1651,86.6897,273.4234,8.739e-05,1.103e-05,0.0,0 STARLINK-3302,1 50842U 22001AR  24193.77811360  .00001103  00000-0  87390-4 0  9992,2 50842  53.2172  19.1651 0001212  86.6897 273.4234 15.08838230140079,6917.886,95.438,540.589,538.912,0.0
50842.0,STARLINK-3302,PAYLOAD,2024-07-12 05:48:10,15.08841215,0.0001278,53.2173,17.0831,79.0931,281.0205,2.634e-05,1.31e-06,0.0,0 STARLINK-3302,1 50842U 22001AR  24194.24179361  .00000131  00000-0  26340-4 0  9991,2 50842  53.2173  17.0831 0001278  79.0931 281.0205 15.08841215138857,6917.877,95.437,540.626,538.858,0.0
50842.0,STARLINK-3302,PAYLOAD,2024-07-12 21:42:02,15.0883974,0.0001324,53.2202,14.1053,118.7929,241.3196,7.0085e-05,8.28e-06,0.0,0 STARLINK-3302,1 50842U 22001AR  24194.90419093  .00000828  00000-0  70085-4 0  9991,2 50842  53.2202  14.1053 0001324 118.7929 241.3196 15.08839740138953,6917.881,95.438,540.662,538.83,0.0
50842.0,STARLINK-3302,PAYLOAD,2024-07-13 12:00:30,15.08837739,0.0001749,53.22,11.4291,117.9175,242.1995,2.3019e-06,-2.51e-06,0.0,0 STARLINK-3302,1 50842U 22001AR  24195.50035609 -.00000251  00000-0  23019-5 0  9992,2 50842  53.2200  11.4291 0001749 117.9175 242.1995 15.08837739139043,6917.887,95.438,540.962,538.542,0.0
50842.0,STARLINK-3302,PAYLOAD,2024-07-13 21:32:48,15.08849027,0.0001188,53.2181,9.6481,91.8876,268.2252,5.9348e-05,6.57e-06,0.0,0 STARLINK-3302,1 50842U 22001AR  24195.89778690  .00000657  00000-0  59348-4 0  9990,2 50842  53.2181   9.6481 0001188  91.8876 268.2252 15.08849027139101,6917.853,95.437,540.54,538.896,0.0
50842.0,STARLINK-3302,PAYLOAD,2024-07-14 11:51:17,15.08839683,0.0001423,53.2174,6.9688,107.9934,252.1213,-2.8291e-06,-3.33e-06,0.0,0 STARLINK-3302,1 50842U 22001AR  24196.49395449 -.00000333  00000-0 -28291-5 0  9991,2 50842  53.2174   6.9688 0001423 107.9934 252.1213 15.08839683140487,6917.881,95.438,540.731,538.762,0.0
50842.0,STARLINK-3302,PAYLOAD,2024-07-14 15:02:03,15.08839937,0.0001274,53.2172,6.3739,111.1196,248.9932,7.4156e-05,8.93e-06,0.0,0 STARLINK-3302,1 50842U 22001AR  24196.62643206  .00000893  00000-0  74156-4 0  9992,2 50842  53.2172   6.3739 0001274 111.1196 248.9932 15.08839937139219,6917.881,95.438,540.627,538.864,0.0
50842.0,STARLINK-3302,PAYLOAD,2024-07-14 19:48:12,15.08847739,0.0001168,53.2182,5.4855,93.8398,266.2728,6.9338e-05,8.16e-06,0.0,0 STARLINK-3302,1 50842U 22001AR  24196.82514818  .00000816  00000-0  69338-4 0  9991,2 50842  53.2182   5.4855 0001168  93.8398 266.2728 15.08847739140533,6917.857,95.437,540.53,538.914,0.0
